start=new Date('2023-03-12T00:00:00.000Z').valueOf();
sats=[{"APOAPSIS":"548.156","MEAN_ANOMALY":"275.5772","FILE":"3857581","ELEMENT_SET_NO":"999","ARG_OF_PERICENTER":"84.5372","DECAY_DATE":null,"RCS_SIZE":"LARGE","SEMIMAJOR_AXIS":"6925.349","MEAN_MOTION_DOT":"0.00007712","TIME_SYSTEM":"UTC","NORAD_CAT_ID":"44736","MEAN_ELEMENT_THEORY":"SGP4","RA_OF_ASC_NODE":"78.6113","OBJECT_TYPE":"PAYLOAD","ECCENTRICITY":"0.00013600","BSTAR":"0.00053607000000","INCLINATION":"53.0531","PERIOD":"95.592","MEAN_MOTION":"15.06399718","LAUNCH_DATE":"2019-11-11","MEAN_MOTION_DDOT":"0.0000000000000","PERIAPSIS":"546.273","TLE_LINE2":"2 44736  53.0531  78.6113 0001360  84.5372 275.5772 15.06399718183554","TLE_LINE1":"1 44736U 19074Z   23070.50254771  .00007712  00000-0  53607-3 0  9999","EPOCH":"2023-03-11T12:03:40.122144","COUNTRY_CODE":"US","REF_FRAME":"TEME","REV_AT_EPOCH":"18355","CENTER_NAME":"EARTH","SITE":"AFETR","CLASSIFICATION_TYPE":"U","OBJECT_ID":"2019-074Z","OBJECT_NAME":"STARLINK-1031","EPHEMERIS_TYPE":"0","GP_ID":"227853304"},{"CLASSIFICATION_TYPE":"U","SITE":"AFETR","CENTER_NAME":"EARTH","REV_AT_EPOCH":"18355","GP_ID":"227853553","EPHEMERIS_TYPE":"0","OBJECT_NAME":"STARLINK-1032","OBJECT_ID":"2019-074AA","TLE_LINE1":"1 44737U 19074AA  23070.51360505  .00016060  00000-0  10945-2 0  9997","TLE_LINE2":"2 44737  53.0536  78.5590 0001662 117.4088 242.7070 15.06402473183553","REF_FRAME":"TEME","COUNTRY_CODE":"US","EPOCH":"2023-03-11T12:19:35.476320","INCLINATION":"53.0536","BSTAR":"0.00109450000000","ECCENTRICITY":"0.00016620","OBJECT_TYPE":"PAYLOAD","PERIAPSIS":"546.055","MEAN_MOTION_DDOT":"0.0000000000000","LAUNCH_DATE":"2019-11-11","MEAN_MOTION":"15.06402473","PERIOD":"95.592","RCS_SIZE":"LARGE","DECAY_DATE":null,"ELEMENT_SET_NO":"999","ARG_OF_PERICENTER":"117.4088","FILE":"3857581","MEAN_ANOMALY":"242.7070","APOAPSIS":"548.357","RA_OF_ASC_NODE":"78.5590","MEAN_ELEMENT_THEORY":"SGP4","MEAN_MOTION_DOT":"0.00016060","NORAD_CAT_ID":"44737","TIME_SYSTEM":"UTC","SEMIMAJOR_AXIS":"6925.341"},{"RA_OF_ASC_NODE":"78.6273","TIME_SYSTEM":"UTC","MEAN_MOTION_DOT":"0.00006671","NORAD_CAT_ID":"44738","SEMIMAJOR_AXIS":"6925.350","MEAN_ELEMENT_THEORY":"SGP4","RCS_SIZE":"LARGE","DECAY_DATE":null,"MEAN_ANOMALY":"260.4404","FILE":"3857581","APOAPSIS":"548.257","ELEMENT_SET_NO":"999","ARG_OF_PERICENTER":"99.6755","PERIAPSIS":"546.172","MEAN_MOTION_DDOT":"0.0000000000000","MEAN_MOTION":"15.06399621","PERIOD":"95.592","LAUNCH_DATE":"2019-11-11","INCLINATION":"53.0534","BSTAR":"0.00046630000000","ECCENTRICITY":"0.00015050","OBJECT_TYPE":"PAYLOAD","COUNTRY_CODE":"US","REF_FRAME":"TEME","EPOCH":"2023-03-11T11:58:21.771840","TLE_LINE1":"1 44738U 19074AB  23070.49886310  .00006671  00000-0  46630-3 0  9990","TLE_LINE2":"2 44738  53.0534  78.6273 0001505  99.6755 260.4404 15.06399621183546","EPHEMERIS_TYPE":"0","OBJECT_NAME":"STARLINK-1033","OBJECT_ID":"2019-074AB","GP_ID":"227853801","CLASSIFICATION_TYPE":"U","CENTER_NAME":"EARTH","REV_AT_EPOCH":"18354","SITE":"AFETR"},{"RA_OF_ASC_NODE":"38.9933","TIME_SYSTEM":"UTC","MEAN_MOTION_DOT":"0.00185055","NORAD_CAT_ID":"44739","SEMIMAJOR_AXIS":"6845.327","MEAN_ELEMENT_THEORY":"SGP4","RCS_SIZE":"LARGE","DECAY_DATE":null,"FILE":"3857581","MEAN_ANOMALY":"257.4471","APOAPSIS":"469.865","ELEMENT_SET_NO":"999","ARG_OF_PERICENTER":"102.6965","PERIAPSIS":"464.519","MEAN_MOTION_DDOT":"0.0000000000000","MEAN_MOTION":"15.32891547","PERIOD":"93.940","LAUNCH_DATE":"2019-11-11","INCLINATION":"52.9623","BSTAR":"0.00561420000000","ECCENTRICITY":"0.00039050","OBJECT_TYPE":"PAYLOAD","COUNTRY_CODE":"US","REF_FRAME":"TEME","EPOCH":"2023-03-11T08:00:08.175744","TLE_LINE1":"1 44739U 19074AC  23070.33342796  .00185055  00000-0  56142-2 0  9991","TLE_LINE2":"2 44739  52.9623  38.9933 0003905 102.6965 257.4471 15.32891547184027","EPHEMERIS_TYPE":"0","OBJECT_NAME":"STARLINK-1034","OBJECT_ID":"2019-074AC","GP_ID":"227854552","CLASSIFICATION_TYPE":"U","CENTER_NAME":"EARTH","REV_AT_EPOCH":"18402","SITE":"AFETR"},{"EPOCH":"2023-03-11T10:38:44.756448","REF_FRAME":"TEME","COUNTRY_CODE":"US","TLE_LINE2":"2 44740  53.0538  78.8765 0001479  89.0409 271.0750 15.06400130183540","TLE_LINE1":"1 44740U 19074AD  23070.44357357  .00006162  00000-0  43218-3 0  9996","GP_ID":"227852804","OBJECT_ID":"2019-074AD","OBJECT_NAME":"STARLINK-1035","EPHEMERIS_TYPE":"0","SITE":"AFETR","REV_AT_EPOCH":"18354","CENTER_NAME":"EARTH","CLASSIFICATION_TYPE":"U","MEAN_ELEMENT_THEORY":"SGP4","SEMIMAJOR_AXIS":"6925.348","MEAN_MOTION_DOT":"0.00006162","NORAD_CAT_ID":"44740","TIME_SYSTEM":"UTC","RA_OF_ASC_NODE":"78.8765","ARG_OF_PERICENTER":"89.0409","ELEMENT_SET_NO":"999","APOAPSIS":"548.237","MEAN_ANOMALY":"271.0750","FILE":"3857581","DECAY_DATE":null,"RCS_SIZE":"LARGE","LAUNCH_DATE":"2019-11-11","PERIOD":"95.592","MEAN_MOTION":"15.06400130","MEAN_MOTION_DDOT":"0.0000000000000","PERIAPSIS":"546.189","OBJECT_TYPE":"PAYLOAD","ECCENTRICITY":"0.00014790","INCLINATION":"53.0538","BSTAR":"0.00043218000000"},{"MEAN_MOTION_DOT":"0.00014152","TIME_SYSTEM":"UTC","NORAD_CAT_ID":"44741","SEMIMAJOR_AXIS":"6925.322","MEAN_ELEMENT_THEORY":"SGP4","RA_OF_ASC_NODE":"78.5277","FILE":"3857581","MEAN_ANOMALY":"260.3963","APOAPSIS":"548.173","ELEMENT_SET_NO":"999","ARG_OF_PERICENTER":"99.7187","RCS_SIZE":"LARGE","DECAY_DATE":null,"MEAN_MOTION":"15.06408619","PERIOD":"95.592","LAUNCH_DATE":"2019-11-11","PERIAPSIS":"546.201","MEAN_MOTION_DDOT":"0.0000000000000","ECCENTRICITY":"0.00014240","OBJECT_TYPE":"PAYLOAD","INCLINATION":"53.0538","BSTAR":"0.00096686000000","EPOCH":"2023-03-11T12:30:12.360096","COUNTRY_CODE":"US","REF_FRAME":"TEME","TLE_LINE2":"2 44741  53.0538  78.5277 0001424  99.7187 260.3963 15.06408619183555","TLE_LINE1":"1 44741U 19074AE  23070.52097639  .00014152  00000-0  96686-3 0  9995","OBJECT_NAME":"STARLINK-1036","EPHEMERIS_TYPE":"0","OBJECT_ID":"2019-074AE","GP_ID":"227853054","CENTER_NAME":"EARTH","REV_AT_EPOCH":"18355","SITE":"AFETR","CLASSIFICATION_TYPE":"U"},{"TLE_LINE2":"2 44742  52.9689  28.5907 0010352 130.4837 229.7071 15.44436020184178","TLE_LINE1":"1 44742U 19074AF  23070.32160935  .00328910  00000-0  67056-2 0  9992","EPOCH":"2023-03-11T07:43:07.047840","REF_FRAME":"TEME","COUNTRY_CODE":"US","SITE":"AFETR","CENTER_NAME":"EARTH","REV_AT_EPOCH":"18417","CLASSIFICATION_TYPE":"U","GP_ID":"227854302","OBJECT_NAME":"STARLINK-1037","EPHEMERIS_TYPE":"0","OBJECT_ID":"2019-074AF","ARG_OF_PERICENTER":"130.4837","ELEMENT_SET_NO":"999","MEAN_ANOMALY":"229.7071","FILE":"3857581","APOAPSIS":"440.089","RCS_SIZE":"LARGE","DECAY_DATE":null,"MEAN_ELEMENT_THEORY":"SGP4","MEAN_MOTION_DOT":"0.00328910","TIME_SYSTEM":"UTC","NORAD_CAT_ID":"44742","SEMIMAJOR_AXIS":"6811.173","RA_OF_ASC_NODE":"28.5907","ECCENTRICITY":"0.00103520","OBJECT_TYPE":"PAYLOAD","INCLINATION":"52.9689","BSTAR":"0.00670560000000","LAUNCH_DATE":"2019-11-11","MEAN_MOTION":"15.44436020","PERIOD":"93.238","PERIAPSIS":"425.987","MEAN_MOTION_DDOT":"0.0000000000000"},{"PERIOD":"95.593","MEAN_MOTION":"15.06392423","LAUNCH_DATE":"2019-11-11","MEAN_MOTION_DDOT":"0.0000000000000","PERIAPSIS":"546.282","OBJECT_TYPE":"PAYLOAD","ECCENTRICITY":"0.00013790","INCLINATION":"53.0522","BSTAR":"-0.00002496200000","SEMIMAJOR_AXIS":"6925.372","NORAD_CAT_ID":"44743","MEAN_MOTION_DOT":"-0.00000653","TIME_SYSTEM":"UTC","MEAN_ELEMENT_THEORY":"SGP4","RA_OF_ASC_NODE":"98.6040","APOAPSIS":"548.192","FILE":"3857581","MEAN_ANOMALY":"271.7140","ELEMENT_SET_NO":"999","ARG_OF_PERICENTER":"88.4007","DECAY_DATE":null,"RCS_SIZE":"LARGE","OBJECT_ID":"2019-074AG","OBJECT_NAME":"STARLINK-1038","EPHEMERIS_TYPE":"0","GP_ID":"227854052","REV_AT_EPOCH":"18336","CENTER_NAME":"EARTH","SITE":"AFETR","CLASSIFICATION_TYPE":"U","EPOCH":"2023-03-11T12:06:19.415232","COUNTRY_CODE":"US","REF_FRAME":"TEME","TLE_LINE2":"2 44743  53.0522  98.6040 0001379  88.4007 271.7140 15.06392423183363","TLE_LINE1":"1 44743U 19074AG  23070.50439138 -.00000653  00000-0 -24962-4 0  9991"},{"EPHEMERIS_TYPE":"0","OBJECT_NAME":"STARLINK-1039","OBJECT_ID":"2019-074AH","GP_ID":"227853305","CENTER_NAME":"EARTH","REV_AT_EPOCH":"18327","SITE":"AFETR","CLASSIFICATION_TYPE":"U","EPOCH":"2023-03-11T12:22:14.725344","COUNTRY_CODE":"US","REF_FRAME":"TEME","TLE_LINE2":"2 44744  53.0524  98.5555 0001438 103.9233 256.1916 15.06394706183270","TLE_LINE1":"1 44744U 19074AH  23070.51544821  .00008952  00000-0  61919-3 0  9999","MEAN_MOTION":"15.06394706","PERIOD":"95.592","LAUNCH_DATE":"2019-11-11","PERIAPSIS":"546.234","MEAN_MOTION_DDOT":"0.0000000000000","ECCENTRICITY":"0.00014380","OBJECT_TYPE":"PAYLOAD","INCLINATION":"53.0524","BSTAR":"0.00061919000000","MEAN_MOTION_DOT":"0.00008952","NORAD_CAT_ID":"44744","TIME_SYSTEM":"UTC","SEMIMAJOR_AXIS":"6925.365","MEAN_ELEMENT_THEORY":"SGP4","RA_OF_ASC_NODE":"98.5555","MEAN_ANOMALY":"256.1916","FILE":"3857581","APOAPSIS":"548.226","ELEMENT_SET_NO":"999","ARG_OF_PERICENTER":"103.9233","RCS_SIZE":"LARGE","DECAY_DATE":null},{"PERIOD":"95.592","MEAN_MOTION":"15.06402053","LAUNCH_DATE":"2019-11-11","MEAN_MOTION_DDOT":"0.0000000000000","PERIAPSIS":"546.094","OBJECT_TYPE":"PAYLOAD","ECCENTRICITY":"0.00016070","BSTAR":"0.00126280000000","INCLINATION":"53.0530","SEMIMAJOR_AXIS":"6925.342","MEAN_MOTION_DOT":"0.00018579","TIME_SYSTEM":"UTC","NORAD_CAT_ID":"44746","MEAN_ELEMENT_THEORY":"SGP4","RA_OF_ASC_NODE":"98.3215","APOAPSIS":"548.320","FILE":"3857847","MEAN_ANOMALY":"254.2485","ELEMENT_SET_NO":"999","ARG_OF_PERICENTER":"105.8681","DECAY_DATE":null,"RCS_SIZE":"LARGE","OBJECT_ID":"2019-074AK","EPHEMERIS_TYPE":"0","OBJECT_NAME":"STARLINK-1041","GP_ID":"227886864","REV_AT_EPOCH":"18328","CENTER_NAME":"EARTH","SITE":"AFETR","CLASSIFICATION_TYPE":"U","EPOCH":"2023-03-11T13:36:33.328224","COUNTRY_CODE":"US","REF_FRAME":"TEME","TLE_LINE2":"2 44746  53.0530  98.3215 0001607 105.8681 254.2485 15.06402053183282","TLE_LINE1":"1 44746U 19074AK  23070.56705241  .00018579  00000-0  12628-2 0  9999"}];
